STARLINK-2740_new
1 18690C 21044BE  21326.18107578  .00005710  00000-0  38266-3 0  3264
2 18690  53.0528 282.9151 0002253  54.7388 252.6476 15.06386424    19
STARLINK-2740_old
1 28690C 21044BE  21325.18973876 -.00019906  00000-0 -13336-2 0  3258
2 28690  53.0532 287.3652 0002247  53.6122 274.7290 15.06419171    11
